$$SOE
2460154.500000000, A.D. 2023-Jul-29 00:00:00.0000, 4.921783610124438E+08, 1.117325078824522E+08, -1.194910608170420E+08,
2460161.500000000, A.D. 2023-Aug-05 00:00:00.0000, 4.903214225005327E+08, 1.203379815959059E+08, -1.218064124272532E+08,
2460168.500000000, A.D. 2023-Aug-12 00:00:00.0000, 4.882946884347415E+08, 1.289020941801113E+08, -1.240794082166104E+08,
2460175.500000000, A.D. 2023-Aug-19 00:00:00.0000, 4.860995243064595E+08, 1.374220543135026E+08, -1.263094243499931E+08,
2460182.500000000, A.D. 2023-Aug-26 00:00:00.0000, 4.837373240339802E+08, 1.458951017973134E+08, -1.284958517030916E+08,
2460189.500000000, A.D. 2023-Sep-02 00:00:00.0000, 4.812095093408777E+08, 1.543185071356121E+08, -1.306380956306670E+08,
2460196.500000000, A.D. 2023-Sep-09 00:00:00.0000, 4.785175291863915E+08, 1.626895710052313E+08, -1.327355757538750E+08,
2460203.500000000, A.D. 2023-Sep-16 00:00:00.0000, 4.756628594153224E+08, 1.710056235577990E+08, -1.347877257869011E+08,
2460210.500000000, A.D. 2023-Sep-23 00:00:00.0000, 4.726470030423110E+08, 1.792640238404104E+08, -1.367939934173470E+08,
2460217.500000000, A.D. 2023-Sep-30 00:00:00.0000, 4.694714908282288E+08, 1.874621605257012E+08, -1.387538401109502E+08,
2460224.500000000, A.D. 2023-Oct-07 00:00:00.0000, 4.661378797926403E+08, 1.955974534102969E+08, -1.406667406682954E+08,
2460231.500000000, A.D. 2023-Oct-14 00:00:00.0000, 4.626477507022780E+08, 2.036673523705305E+08, -1.425321828999439E+08,
2460238.500000000, A.D. 2023-Oct-21 00:00:00.0000, 4.590027077639111E+08, 2.116693353786843E+08, -1.443496675852846E+08,
2460245.500000000, A.D. 2023-Oct-28 00:00:00.0000, 4.552043790960838E+08, 2.196009078405496E+08, -1.461187083994411E+08,
2460252.500000000, A.D. 2023-Nov-04 00:00:00.0000, 4.512544167290886E+08, 2.274596024849077E+08, -1.478388317564663E+08,
2460259.500000000, A.D. 2023-Nov-11 00:00:00.0000, 4.471544963103954E+08, 2.352429792057637E+08, -1.495095766341572E+08,
2460266.500000000, A.D. 2023-Nov-18 00:00:00.0000, 4.429063167345194E+08, 2.429486247935309E+08, -1.511304944058295E+08,
2460273.500000000, A.D. 2023-Nov-25 00:00:00.0000, 4.385115997695068E+08, 2.505741525782019E+08, -1.527011486838006E+08,
2460280.500000000, A.D. 2023-Dec-02 00:00:00.0000, 4.339720897075552E+08, 2.581172019738026E+08, -1.542211151780270E+08,
2460287.500000000, A.D. 2023-Dec-09 00:00:00.0000, 4.292895531170116E+08, 2.655754378657299E+08, -1.556899815818880E+08,
2460294.500000000, A.D. 2023-Dec-16 00:00:00.0000, 4.244657789828812E+08, 2.729465498539190E+08, -1.571073475106286E+08,
2460301.500000000, A.D. 2023-Dec-23 00:00:00.0000, 4.195025795837212E+08, 2.802282520391509E+08, -1.584728244682928E+08,
2460308.500000000, A.D. 2023-Dec-30 00:00:00.0000, 4.144017907631770E+08, 2.874182844015303E+08, -1.597860356340201E+08,
2460315.500000000, A.D. 2024-Jan-06 00:00:00.0000, 4.091652698224634E+08, 2.945144134116876E+08, -1.610466154980439E+08,
2460322.500000000, A.D. 2024-Jan-13 00:00:00.0000, 4.037948942070643E+08, 3.015144300689198E+08, -1.622542097870559E+08,
2460329.500000000, A.D. 2024-Jan-20 00:00:00.0000, 3.982925622109349E+08, 3.084161484504408E+08, -1.634084755393871E+08,
2460336.500000000, A.D. 2024-Jan-27 00:00:00.0000, 3.926601936682307E+08, 3.152174054239090E+08, -1.645090810904490E+08,
2460343.500000000, A.D. 2024-Feb-03 00:00:00.0000, 3.868997302033359E+08, 3.219160605751728E+08, -1.655557060067928E+08,
2460350.500000000, A.D. 2024-Feb-10 00:00:00.0000, 3.810131353160082E+08, 3.285099960606599E+08, -1.665480410182810E+08,
2460357.500000000, A.D. 2024-Feb-17 00:00:00.0000, 3.750023944398265E+08, 3.349971163927991E+08, -1.674857879606734E+08,
2460364.500000000, A.D. 2024-Feb-24 00:00:00.0000, 3.688695150093528E+08, 3.413753481737175E+08, -1.683686597309035E+08,
2460371.500000000, A.D. 2024-Mar-02 00:00:00.0000, 3.626165265648392E+08, 3.476426397451878E+08, -1.691963802605603E+08,
2460378.500000000, A.D. 2024-Mar-09 00:00:00.0000, 3.562454810328587E+08, 3.537969606925631E+08, -1.699686845256653E+08,
2460385.500000000, A.D. 2024-Mar-16 00:00:00.0000, 3.497584535779604E+08, 3.598363014005063E+08, -1.706853186131967E+08,
2460392.500000000, A.D. 2024-Mar-23 00:00:00.0000, 3.431575439215242E+08, 3.657586737695053E+08, -1.713460397443001E+08,
2460399.500000000, A.D. 2024-Mar-30 00:00:00.0000, 3.364448758854070E+08, 3.715621130661945E+08, -1.719506160502316E+08,
2460406.500000000, A.D. 2024-Apr-06 00:00:00.0000, 3.296225954153790E+08, 3.772446775413688E+08, -1.724988263998448E+08,
2460413.500000000, A.D. 2024-Apr-13 00:00:00.0000, 3.226928706360991E+08, 3.828044466534372E+08, -1.729904605369791E+08,
2460420.500000000, A.D. 2024-Apr-20 00:00:00.0000, 3.156578929854699E+08, 3.882395205738211E+08, -1.734253192217816E+08,
2460427.500000000, A.D. 2024-Apr-27 00:00:00.0000, 3.085198779106242E+08, 3.935480204131157E+08, -1.738032142824995E+08,
2460434.500000000, A.D. 2024-May-04 00:00:00.0000, 3.012810652130298E+08, 3.987280884652845E+08, -1.741239686433615E+08,
2460441.500000000, A.D. 2024-May-11 00:00:00.0000, 2.939437192808677E+08, 4.037778883686948E+08, -1.743874163587973E+08,
2460448.500000000, A.D. 2024-May-18 00:00:00.0000, 2.865101292904323E+08, 4.086956052060232E+08, -1.745934026595948E+08,
2460455.500000000, A.D. 2024-May-25 00:00:00.0000, 2.789826094007919E+08, 4.134794455361878E+08, -1.747417840134000E+08,
2460462.500000000, A.D. 2024-Jun-01 00:00:00.0000, 2.713634990007122E+08, 4.181276373012689E+08, -1.748324282090959E+08,
2460469.500000000, A.D. 2024-Jun-08 00:00:00.0000, 2.636551632531272E+08, 4.226384295863100E+08, -1.748652144889959E+08,
2460476.500000000, A.D. 2024-Jun-15 00:00:00.0000, 2.558599943358668E+08, 4.270100927784082E+08, -1.748400337208465E+08,
2460483.500000000, A.D. 2024-Jun-22 00:00:00.0000, 2.479804123729914E+08, 4.312409203011414E+08, -1.747567884213569E+08,
2460490.500000000, A.D. 2024-Jun-29 00:00:00.0000, 2.400188639339725E+08, 4.353292301042191E+08, -1.746153925849778E+08,
2460497.500000000, A.D. 2024-Jul-06 00:00:00.0000, 2.319778207449926E+08, 4.392733634394795E+08, -1.744157717630523E+08,
2460504.500000000, A.D. 2024-Jul-13 00:00:00.0000, 2.238597805625116E+08, 4.430716837489166E+08, -1.741578633424188E+08,
2460511.500000000, A.D. 2024-Jul-20 00:00:00.0000, 2.156672682236464E+08, 4.467225768133804E+08, -1.738416167474051E+08,
2460518.500000000, A.D. 2024-Jul-27 00:00:00.0000, 2.074028362167018E+08, 4.502244512026579E+08, -1.734669935831665E+08,
2460525.500000000, A.D. 2024-Aug-03 00:00:00.0000, 1.990690650440759E+08, 4.535757386526110E+08, -1.730339677760235E+08,
2460532.500000000, A.D. 2024-Aug-10 00:00:00.0000, 1.906685635426286E+08, 4.567748943657373E+08, -1.725425257264992E+08,
2460539.500000000, A.D. 2024-Aug-17 00:00:00.0000, 1.822039692081321E+08, 4.598203972578406E+08, -1.719926664778263E+08,
2460546.500000000, A.D. 2024-Aug-24 00:00:00.0000, 1.736779485508769E+08, 4.627107501296321E+08, -1.713844019045546E+08,
2460553.500000000, A.D. 2024-Aug-31 00:00:00.0000, 1.650931975972385E+08, 4.654444797029751E+08, -1.707177569372123E+08,
2460560.500000000, A.D. 2024-Sep-07 00:00:00.0000, 1.564524429018965E+08, 4.680201366495422E+08, -1.699927698466948E+08,
2460567.500000000, A.D. 2024-Sep-14 00:00:00.0000, 1.477584431554976E+08, 4.704362966092097E+08, -1.692094925154839E+08,
2460574.500000000, A.D. 2024-Sep-21 00:00:00.0000, 1.390139893586678E+08, 4.726915626112406E+08, -1.683679904760365E+08,
2460581.500000000, A.D. 2024-Sep-28 00:00:00.0000, 1.302219030732713E+08, 4.747845656707199E+08, -1.674683429348098E+08,
2460588.500000000, A.D. 2024-Oct-05 00:00:00.0000, 1.213850364189342E+08, 4.767139635640261E+08, -1.665106431190258E+08,
2460595.500000000, A.D. 2024-Oct-12 00:00:00.0000, 1.125062734540663E+08, 4.784784407652645E+08, -1.654949986705298E+08,
2460602.500000000, A.D. 2024-Oct-19 00:00:00.0000, 1.035885311898687E+08, 4.800767092734517E+08, -1.644215319482624E+08,
2460609.500000000, A.D. 2024-Oct-26 00:00:00.0000, 9.463476020377274E+07, 4.815075095299420E+08, -1.632903803017671E+08,
2460616.500000000, A.D. 2024-Nov-02 00:00:00.0000, 8.564794510852762E+07, 4.827696112789962E+08, -1.621016963515649E+08,
2460623.500000000, A.D. 2024-Nov-09 00:00:00.0000, 7.663110497251205E+07, 4.838618143935899E+08, -1.608556482837080E+08,
2460630.500000000, A.D. 2024-Nov-16 00:00:00.0000, 6.758729371615781E+07, 4.847829496681201E+08, -1.595524201609723E+08,
2460637.500000000, A.D. 2024-Nov-23 00:00:00.0000, 5.851960053033616E+07, 4.855318795294778E+08, -1.581922122591235E+08,
2460644.500000000, A.D. 2024-Nov-30 00:00:00.0000, 4.943115052377976E+07, 4.861074986251988E+08, -1.567752414508536E+08,
2460651.500000000, A.D. 2024-Dec-07 00:00:00.0000, 4.032510601762791E+07, 4.865087347108692E+08, -1.553017416415840E+08,
2460658.500000000, A.D. 2024-Dec-14 00:00:00.0000, 3.120466779744824E+07, 4.867345510624111E+08, -1.537719640942032E+08,
2460665.500000000, A.D. 2024-Dec-21 00:00:00.0000, 2.207307400341403E+07, 4.867839491729093E+08, -1.521861775309625E+08,
2460672.500000000, A.D. 2024-Dec-28 00:00:00.0000, 1.293359862861052E+07, 4.866559687665883E+08, -1.505446684348233E+08,
2460679.500000000, A.D. 2025-Jan-04 00:00:00.0000, 3.789552219888911E+06, 4.863496875083241E+08, -1.488477415946575E+08,
2460686.500000000, A.D. 2025-Jan-11 00:00:00.0000, -5.355717041175867E+06, 4.858642220705365E+08, -1.470957205921190E+08,
2460693.500000000, A.D. 2025-Jan-18 00:00:00.0000, -1.449882279546391E+07, 4.851987296393852E+08, -1.452889482207814E+08,
2460700.500000000, A.D. 2025-Jan-25 00:00:00.0000, -2.363634025990946E+07, 4.843524093863111E+08, -1.434277868980842E+08,
2460707.500000000, A.D. 2025-Feb-01 00:00:00.0000, -3.276480608998485E+07, 4.833245038753124E+08, -1.415126190892849E+08,
2460714.500000000, A.D. 2025-Feb-08 00:00:00.0000, -4.188071829505040E+07, 4.821143004260243E+08, -1.395438477464331E+08,
2460721.500000000, A.D. 2025-Feb-15 00:00:00.0000, -5.098053618071976E+07, 4.807211324131513E+08, -1.375218967660645E+08,
$$EOE